start=new Date('2022-09-06T00:00:00.000Z').valueOf();
sats=[{"PERIOD":"95.592","MEAN_ANOMALY":"284.1091","NORAD_CAT_ID":"47913","REV_AT_EPOCH":"8296","DECAY_DATE":null,"TLE_LINE1":"1 47913U 21021BF  22248.59827198  .00001228  00000-0  10128-3 0  9995","RA_OF_ASC_NODE":"273.1441","LAUNCH_DATE":"2021-03-14","TIME_SYSTEM":"UTC","CENTER_NAME":"EARTH","GP_ID":"211834045","OBJECT_NAME":"STARLINK-2374","OBJECT_ID":"2021-021BF","REF_FRAME":"TEME","EPHEMERIS_TYPE":"0","SEMIMAJOR_AXIS":"6925.331","PERIAPSIS":"546.193","FILE":"3559723","ELEMENT_SET_NO":"999","EPOCH":"2022-09-05T14:21:30.699072","SITE":"AFETR","ARG_OF_PERICENTER":"76.0059","TLE_LINE2":"2 47913  53.0534 273.1441 0001449  76.0059 284.1091 15.06405709 82960","BSTAR":"0.00010128000000","OBJECT_TYPE":"PAYLOAD","INCLINATION":"53.0534","CLASSIFICATION_TYPE":"U","RCS_SIZE":"LARGE","MEAN_ELEMENT_THEORY":"SGP4","COUNTRY_CODE":"US","MEAN_MOTION_DOT":"0.00001228","MEAN_MOTION_DDOT":"0.0000000000000","APOAPSIS":"548.200","MEAN_MOTION":"15.06405709","ECCENTRICITY":"0.00014490"},{"REV_AT_EPOCH":"8295","MEAN_ANOMALY":"290.8957","PERIOD":"95.592","NORAD_CAT_ID":"47914","OBJECT_NAME":"STARLINK-2375","SEMIMAJOR_AXIS":"6925.350","EPHEMERIS_TYPE":"0","OBJECT_ID":"2021-021BG","REF_FRAME":"TEME","RA_OF_ASC_NODE":"272.8887","TLE_LINE1":"1 47914U 21021BG  22248.55030648  .00001434  00000-0  11512-3 0  9995","DECAY_DATE":null,"GP_ID":"211832296","CENTER_NAME":"EARTH","TIME_SYSTEM":"UTC","LAUNCH_DATE":"2021-03-14","ARG_OF_PERICENTER":"69.2185","EPOCH":"2022-09-05T13:12:26.479872","ELEMENT_SET_NO":"999","FILE":"3559723","PERIAPSIS":"546.226","SITE":"AFETR","COUNTRY_CODE":"US","MEAN_ELEMENT_THEORY":"SGP4","RCS_SIZE":"LARGE","CLASSIFICATION_TYPE":"U","MEAN_MOTION":"15.06399394","APOAPSIS":"548.204","ECCENTRICITY":"0.00014280","MEAN_MOTION_DDOT":"0.0000000000000","MEAN_MOTION_DOT":"0.00001434","BSTAR":"0.00011512000000","TLE_LINE2":"2 47914  53.0530 272.8887 0001428  69.2185 290.8957 15.06399394 82954","INCLINATION":"53.0530","OBJECT_TYPE":"PAYLOAD"},{"ARG_OF_PERICENTER":"81.0254","FILE":"3559490","PERIAPSIS":"546.286","ELEMENT_SET_NO":"999","EPOCH":"2022-09-05T11:34:54.099840","SITE":"AFETR","CLASSIFICATION_TYPE":"U","RCS_SIZE":"LARGE","MEAN_ELEMENT_THEORY":"SGP4","COUNTRY_CODE":"US","MEAN_MOTION_DOT":"0.00001247","MEAN_MOTION_DDOT":"0.0000000000000","ECCENTRICITY":"0.00013290","APOAPSIS":"548.127","MEAN_MOTION":"15.06402391","TLE_LINE2":"2 47915  53.0524 268.1784 0001329  81.0254 279.0886 15.06402391 83022","BSTAR":"0.00010257000000","OBJECT_TYPE":"PAYLOAD","INCLINATION":"53.0524","REV_AT_EPOCH":"8302","PERIOD":"95.592","MEAN_ANOMALY":"279.0886","NORAD_CAT_ID":"47915","OBJECT_NAME":"STARLINK-2376","OBJECT_ID":"2021-021BH","REF_FRAME":"TEME","EPHEMERIS_TYPE":"0","SEMIMAJOR_AXIS":"6925.341","DECAY_DATE":null,"TLE_LINE1":"1 47915U 21021BH  22248.48257060  .00001247  00000-0  10257-3 0  9994","RA_OF_ASC_NODE":"268.1784","TIME_SYSTEM":"UTC","LAUNCH_DATE":"2021-03-14","CENTER_NAME":"EARTH","GP_ID":"211802514"},{"FILE":"3559490","PERIAPSIS":"546.142","ELEMENT_SET_NO":"999","EPOCH":"2022-09-05T07:46:01.315776","SITE":"AFETR","ARG_OF_PERICENTER":"78.5092","TLE_LINE2":"2 47916  53.0531 253.9084 0001567  78.5092 281.6073 15.06395465 83188","BSTAR":"-0.00003222600000","OBJECT_TYPE":"PAYLOAD","INCLINATION":"53.0531","RCS_SIZE":"LARGE","CLASSIFICATION_TYPE":"U","MEAN_ELEMENT_THEORY":"SGP4","COUNTRY_CODE":"US","MEAN_MOTION_DOT":"-0.00000761","MEAN_MOTION_DDOT":"0.0000000000000","APOAPSIS":"548.313","ECCENTRICITY":"0.00015670","MEAN_MOTION":"15.06395465","PERIOD":"95.592","MEAN_ANOMALY":"281.6073","NORAD_CAT_ID":"47916","REV_AT_EPOCH":"8318","DECAY_DATE":null,"TLE_LINE1":"1 47916U 21021BJ  22248.32362634 -.00000761  00000-0 -32226-4 0  9995","RA_OF_ASC_NODE":"253.9084","LAUNCH_DATE":"2021-03-14","TIME_SYSTEM":"UTC","CENTER_NAME":"EARTH","GP_ID":"211802757","OBJECT_NAME":"STARLINK-2378","OBJECT_ID":"2021-021BJ","REF_FRAME":"TEME","EPHEMERIS_TYPE":"0","SEMIMAJOR_AXIS":"6925.362"},{"MEAN_MOTION_DOT":"0.00001020","MEAN_MOTION_DDOT":"0.0000000000000","APOAPSIS":"548.248","MEAN_MOTION":"15.06405451","ECCENTRICITY":"0.00015180","RCS_SIZE":"LARGE","CLASSIFICATION_TYPE":"U","MEAN_ELEMENT_THEORY":"SGP4","COUNTRY_CODE":"US","OBJECT_TYPE":"PAYLOAD","INCLINATION":"53.0533","BSTAR":"0.00008733800000","TLE_LINE2":"2 47917  53.0533 262.9677 0001518  71.4112 288.7041 15.06405451 83067","ARG_OF_PERICENTER":"71.4112","SITE":"AFETR","PERIAPSIS":"546.146","FILE":"3559723","ELEMENT_SET_NO":"999","EPOCH":"2022-09-05T12:41:55.009824","OBJECT_ID":"2021-021BK","REF_FRAME":"TEME","EPHEMERIS_TYPE":"0","SEMIMAJOR_AXIS":"6925.332","OBJECT_NAME":"STARLINK-2397","TIME_SYSTEM":"UTC","LAUNCH_DATE":"2021-03-14","CENTER_NAME":"EARTH","GP_ID":"211833546","DECAY_DATE":null,"TLE_LINE1":"1 47917U 21021BK  22248.52910891  .00001020  00000-0  87338-4 0  9993","RA_OF_ASC_NODE":"262.9677","REV_AT_EPOCH":"8306","NORAD_CAT_ID":"47917","PERIOD":"95.592","MEAN_ANOMALY":"288.7041"},{"REV_AT_EPOCH":"8260","PERIOD":"95.592","MEAN_ANOMALY":"288.0583","NORAD_CAT_ID":"47918","OBJECT_NAME":"STARLINK-2398","OBJECT_ID":"2021-021BL","REF_FRAME":"TEME","EPHEMERIS_TYPE":"0","SEMIMAJOR_AXIS":"6925.351","DECAY_DATE":null,"TLE_LINE1":"1 47918U 21021BL  22248.47013358  .00001213  00000-0  10034-3 0  9992","RA_OF_ASC_NODE":"263.2477","TIME_SYSTEM":"UTC","LAUNCH_DATE":"2021-03-14","CENTER_NAME":"EARTH","GP_ID":"211807700","ARG_OF_PERICENTER":"72.0560","PERIAPSIS":"546.237","FILE":"3559529","EPOCH":"2022-09-05T11:16:59.541312","ELEMENT_SET_NO":"999","SITE":"AFETR","CLASSIFICATION_TYPE":"U","RCS_SIZE":"LARGE","MEAN_ELEMENT_THEORY":"SGP4","COUNTRY_CODE":"US","MEAN_MOTION_DOT":"0.00001213","MEAN_MOTION_DDOT":"0.0000000000000","APOAPSIS":"548.195","MEAN_MOTION":"15.06399193","ECCENTRICITY":"0.00014140","BSTAR":"0.00010034000000","TLE_LINE2":"2 47918  53.0542 263.2477 0001414  72.0560 288.0583 15.06399193 82607","OBJECT_TYPE":"PAYLOAD","INCLINATION":"53.0542"},{"SEMIMAJOR_AXIS":"6925.336","EPHEMERIS_TYPE":"0","REF_FRAME":"TEME","OBJECT_ID":"2021-021BM","OBJECT_NAME":"STARLINK-2405","GP_ID":"211803014","CENTER_NAME":"EARTH","LAUNCH_DATE":"2021-03-14","TIME_SYSTEM":"UTC","RA_OF_ASC_NODE":"273.3074","TLE_LINE1":"1 47919U 21021BM  22248.45446849  .00001120  00000-0  94073-4 0  9999","DECAY_DATE":null,"REV_AT_EPOCH":"8292","NORAD_CAT_ID":"47919","MEAN_ANOMALY":"294.3077","PERIOD":"95.592","ECCENTRICITY":"0.00016550","APOAPSIS":"548.347","MEAN_MOTION":"15.06404249","MEAN_MOTION_DDOT":"0.0000000000000","MEAN_MOTION_DOT":"0.00001120","COUNTRY_CODE":"US","MEAN_ELEMENT_THEORY":"SGP4","CLASSIFICATION_TYPE":"U","RCS_SIZE":"LARGE","INCLINATION":"53.0550","OBJECT_TYPE":"PAYLOAD","TLE_LINE2":"2 47919  53.0550 273.3074 0001655  65.8085 294.3077 15.06404249 82923","BSTAR":"0.00009407300000","ARG_OF_PERICENTER":"65.8085","SITE":"AFETR","ELEMENT_SET_NO":"999","EPOCH":"2022-09-05T10:54:26.077536","FILE":"3559490","PERIAPSIS":"546.054"},{"NORAD_CAT_ID":"47977","MEAN_ANOMALY":"272.8554","PERIOD":"95.592","REV_AT_EPOCH":"8161","CENTER_NAME":"EARTH","GP_ID":"211833304","TIME_SYSTEM":"UTC","LAUNCH_DATE":"2021-03-24","TLE_LINE1":"1 47977U 21024A   22248.59591045 -.00000252  00000-0  19900-5 0  9993","RA_OF_ASC_NODE":"317.6847","DECAY_DATE":null,"SEMIMAJOR_AXIS":"6925.330","OBJECT_ID":"2021-024A","REF_FRAME":"TEME","EPHEMERIS_TYPE":"0","OBJECT_NAME":"STARLINK-2087","SITE":"AFETR","ELEMENT_SET_NO":"999","EPOCH":"2022-09-05T14:18:06.662880","FILE":"3559723","PERIAPSIS":"546.328","ARG_OF_PERICENTER":"87.2578","OBJECT_TYPE":"PAYLOAD","INCLINATION":"53.0542","TLE_LINE2":"2 47977  53.0542 317.6847 0001252  87.2578 272.8554 15.06406039 81611","BSTAR":"0.00000199000000","APOAPSIS":"548.062","ECCENTRICITY":"0.00012520","MEAN_MOTION":"15.06406039","MEAN_MOTION_DOT":"-0.00000252","MEAN_MOTION_DDOT":"0.0000000000000","COUNTRY_CODE":"US","CLASSIFICATION_TYPE":"U","RCS_SIZE":"LARGE","MEAN_ELEMENT_THEORY":"SGP4"},{"PERIOD":"95.591","MEAN_ANOMALY":"282.0335","NORAD_CAT_ID":"47978","REV_AT_EPOCH":"8092","DECAY_DATE":null,"TLE_LINE1":"1 47978U 21024B   22248.48440681  .00000540  00000-0  55152-4 0  9998","RA_OF_ASC_NODE":"328.1688","LAUNCH_DATE":"2021-03-24","TIME_SYSTEM":"UTC","CENTER_NAME":"EARTH","GP_ID":"211774786","OBJECT_NAME":"STARLINK-1647","REF_FRAME":"TEME","OBJECT_ID":"2021-024B","EPHEMERIS_TYPE":"0","SEMIMAJOR_AXIS":"6925.302","PERIAPSIS":"546.270","FILE":"3559259","ELEMENT_SET_NO":"999","EPOCH":"2022-09-05T11:37:32.748384","SITE":"AFETR","ARG_OF_PERICENTER":"78.0799","TLE_LINE2":"2 47978  53.0559 328.1688 0001294  78.0799 282.0335 15.06415331 80927","BSTAR":"0.00005515200000","OBJECT_TYPE":"PAYLOAD","INCLINATION":"53.0559","RCS_SIZE":"LARGE","CLASSIFICATION_TYPE":"U","MEAN_ELEMENT_THEORY":"SGP4","COUNTRY_CODE":"US","MEAN_MOTION_DOT":"0.00000540","MEAN_MOTION_DDOT":"0.0000000000000","APOAPSIS":"548.063","MEAN_MOTION":"15.06415331","ECCENTRICITY":"0.00012940"},{"ARG_OF_PERICENTER":"57.1252","FILE":"3559490","PERIAPSIS":"545.971","ELEMENT_SET_NO":"999","EPOCH":"2022-09-05T10:07:59.790720","SITE":"AFETR","MEAN_ELEMENT_THEORY":"SGP4","RCS_SIZE":"LARGE","CLASSIFICATION_TYPE":"U","COUNTRY_CODE":"US","MEAN_MOTION_DDOT":"0.0000000000000","MEAN_MOTION_DOT":"0.00000954","APOAPSIS":"548.445","MEAN_MOTION":"15.06401783","ECCENTRICITY":"0.00017860","BSTAR":"0.00008294500000","TLE_LINE2":"2 47979  53.0548 263.4562 0001786  57.1252 302.9908 15.06401783 82359","INCLINATION":"53.0548","OBJECT_TYPE":"PAYLOAD","REV_AT_EPOCH":"8235","PERIOD":"95.592","MEAN_ANOMALY":"302.9908","NORAD_CAT_ID":"47979","OBJECT_NAME":"STARLINK-2325","EPHEMERIS_TYPE":"0","OBJECT_ID":"2021-024C","REF_FRAME":"TEME","SEMIMAJOR_AXIS":"6925.343","DECAY_DATE":null,"RA_OF_ASC_NODE":"263.4562","TLE_LINE1":"1 47979U 21024C   22248.42221980  .00000954  00000-0  82945-4 0  9991","TIME_SYSTEM":"UTC","LAUNCH_DATE":"2021-03-24","GP_ID":"211802268","CENTER_NAME":"EARTH"}];
